GOES 16                 
1 41866U 16071A   24270.87303375 -.00000264  00000+0  00000+0 0  9992
2 41866   0.0806 286.3463 0000854 338.1952 340.7127  1.00271048 28806
TIANLIAN 1-04           
1 41869U 16072A   24270.85157429  .00000015  00000+0  00000+0 0  9994
2 41869   0.0772  99.9301 0037058  61.1453 328.4099  1.00271631 29018
WGS F8 (USA 272)        
1 41879U 16075A   24270.71073525 -.00000219  00000+0  00000+0 0  9994
2 41879   0.0164 148.8405 0000231 111.6924 151.1151  1.00271205 28511
FENGYUN 4A              
1 41882U 16077A   24270.69910414 -.00000217  00000+0  00000+0 0  9992
2 41882   0.7117  85.7566 0007645 343.0791 275.6347  1.00271111 28623
ECHOSTAR 19             
1 41893U 16079A   24269.22404814 -.00000153  00000+0  00000+0 0  9994
2 41893   0.0145 125.9450 0001610  70.5533 151.5907  1.00271980 28381
JCSAT-110A (JCSAT-15)   
1 41903U 16082A   24269.26478017 -.00000366  00000+0  00000+0 0  9996
2 41903   0.0181 164.4219 0001132  63.9818 341.5595  1.00272428 28444
STAR ONE D1             
1 41904U 16082B   24270.54632851 -.00000227  00000+0  00000+0 0  9994
2 41904   0.0154 138.3188 0001606  51.8042 288.3994  1.00269466 28473
TJS-2                   
1 41911U 17001A   24270.71021550 -.00000023  00000+0  00000+0 0  9995
2 41911   0.0546 102.8972 0000959 148.5013  76.7738  1.00273744 28429
SBIRS GEO-4 (USA 273)   
1 41937U 17004A   24270.58268286 -.00000159  00000+0  00000+0 0  9990
2 41937   1.4277   7.5068 0002044 195.4299 275.9027  1.00271844 28304
HISPASAT 36W-1          
1 41942U 17006A   24271.02380417 -.00000261  00000+0  00000+0 0  9993
2 41942   0.0136  71.7717 0000992 109.1312 157.9772  1.00271093 28235
TELKOM 3S               
1 41944U 17007A   24270.70466140 -.00000379  00000+0  00000+0 0  9998
2 41944   0.0215 153.4321 0002724  55.2465 168.9834  1.00267138 27830
INTELSAT 32E (IS-32E)   
1 41945U 17007B   24270.95088056 -.00000285  00000+0  00000+0 0  9998
2 41945   0.0133 124.1871 0000513  71.8979 109.2812  1.00271783 27940
ECHOSTAR 23             
1 42070U 17014A   24270.50068814 -.00000073  00000+0  00000+0 0  9992
2 42070   0.0233 159.7740 0002001  22.6088 253.7535  1.00269597 27610
WGS F9 (USA 275)        
1 42075U 17016A   24270.85535747 -.00000113  00000+0  00000+0 0  9996
2 42075   0.0076 223.9242 0000680  32.6529  45.4826  1.00269947 27598
SES-10                  
1 42432U 17017A   24271.14028810 -.00000289  00000+0  00000+0 0  9999
2 42432   0.0347  50.7745 0002584 136.1195 163.1357  1.00271994 27428
CHINASAT 16 (SJ-13)     
1 42662U 17018A   24271.29841122 -.00000368  00000+0  00000+0 0  9998
2 42662   0.0499  94.7454 0007016 128.5075   1.2312  1.00267706 27444
KOREASAT 7              
1 42691U 17023A   24270.98250500 -.00000378  00000+0  00000+0 0  9996
2 42691   0.0261 332.9505 0001957 237.2961 265.6217  1.00269738 27141
SGDC                    
1 42692U 17023B   24270.19264434 -.00000265  00000+0  00000+0 0  9996
2 42692   0.0122 112.1955 0002639  95.5932 152.2030  1.00271129 27103
GSAT-9                  
1 42695U 17024A   24271.05030267 -.00000302  00000+0  00000+0 0  9993
2 42695   0.0065 188.4624 0002395   3.1722 290.1408  1.00268827 27137
INMARSAT 5-F4           
1 42698U 17025A   24270.68469236  .00000059  00000+0  00000+0 0  9995
2 42698   0.0217 165.8495 0000655  57.3247  85.7917  1.00268170 26979
SES-15                  
1 42709U 17026A   24271.47123252  .00000044  00000+0  00000+0 0  9996
2 42709   0.0424  15.9793 0000414 201.2926 189.9651  1.00269276 27897
QZS-2 (MICHIBIKI-2)     
1 42738U 17028A   24267.83882727 -.00000173  00000+0  00000+0 0  9998
2 42738  40.4218 252.3393 0748340 270.4728 282.6476  1.00258480  1293
VIASAT-2                
1 42740U 17029A   24270.01600222 -.00000281  00000+0  00000+0 0  9994
2 42740   0.0192 207.3577 0000349  63.9335  29.8961  1.00271869 26880
EUTELSAT 172B           
1 42741U 17029B   24271.29041208 -.00000022  00000+0  00000+0 0  9992
2 42741   0.0097 187.5701 0000098 115.3897 340.1567  1.00271120 27410
GSAT-19                 
1 42747U 17031A   24269.24215979  .00000110  00000+0  00000+0 0  9998
2 42747   0.0276  94.5801 0002416  37.4404   7.5912  1.00269949 26825
ECHOSTAR 21             
1 42749U 17032A   24271.40118955  .00000049  00000+0  00000+0 0  9999
2 42749   2.3640 322.9778 0002541 236.6319 321.7635  1.00271592 26825
BULGARIASAT-1           
1 42801U 17038A   24271.09598149 -.00000005  00000+0  00000+0 0  9999
2 42801   0.0392 101.7799 0002693  86.3992 214.6624  1.00271867 26614
HELLAS-SAT 3            
1 42814U 17040A   24270.91438466  .00000136  00000+0  00000+0 0  9995
2 42814   0.0793  38.0193 0000930  84.1309 252.2180  1.00273011 26509
GSAT-17                 
1 42815U 17040B   24271.47862282 -.00000273  00000+0  00000+0 0  9998
2 42815   0.0286  88.6674 0005350 158.3067  25.5757  1.00270685 26570
INTELSAT 35E (IS-35E)   
1 42818U 17041A   24270.23754086 -.00000254  00000+0  00000+0 0  9996
2 42818   0.0167 146.2332 0001724  44.6311 225.6695  1.00271017 26500
COSMOS 2520             
1 42907U 17046A   24270.25335309  .00000120  00000+0  00000+0 0  9996
2 42907   0.0255 116.7949 0000257  93.0613 291.9146  1.00273308 26092
TDRS 13                 
1 42915U 17047A   24271.17176140 -.00000114  00000+0  00000+0 0  9998
2 42915   3.5696 346.8645 0014634 129.7780 300.2376  1.00272297 26087
QZS-3 (MICHIBIKI-3)     
1 42917U 17048A   24270.41261267 -.00000365  00000+0  00000+0 0  9990
2 42917   0.0748 137.1785 0002351  50.1510  93.8855  1.00267106 25951
AMAZONAS 5              
1 42934U 17053A   24268.46395535 -.00000296  00000+0  00000+0 0  9996
2 42934   0.0447 343.6235 0002836 248.1497 238.0227  1.00269902 25728
ASIASAT 9               
1 42942U 17057A   24270.76921171 -.00000376  00000+0  00000+0 0  9995
2 42942   0.0078 152.0049 0002379  41.4789 211.5928  1.00271491 25553
INTELSAT 37E (IS-37E)   
1 42950U 17059A   24271.17045819 -.00000157  00000+0  00000+0 0  9995
2 42950   0.0030  85.8822 0002707 109.5966 214.3382  1.00272025 25740
BSAT-4A                 
1 42951U 17059B   24270.98128868 -.00000366  00000+0  00000+0 0  9992
2 42951   0.0590  53.5204 0000678  66.1786 349.6796  1.00271211 25658
QZS-4 (MICHIBIKI-4)     
1 42965U 17062A   24270.54406799 -.00000347  00000+0  00000+0 0  9994
2 42965  40.4663 351.5074 0751798 269.7900  80.5278  1.00274193 25505
SES-11 (ECHOSTAR 105)   
1 42967U 17063A   24271.48520642 -.00000105  00000+0  00000+0 0  9997
2 42967   0.0506 285.4657 0002270 262.1410 248.8838  1.00272453 25513
KOREASAT 5A             
1 42984U 17067A   24270.75674524 -.00000374  00000+0  00000+0 0  9996
2 42984   0.0150 172.4313 0001765  41.2053 177.9788  1.00266914 25227
ALCOMSAT 1              
1 43039U 17078A   24270.71021635 -.00000202  00000+0  00000+0 0  9995
2 43039   0.0308 241.4343 0002740 321.1756  34.2841  1.00271721 24998
SBIRS GEO-3 (USA 282)   
1 43162U 18009A   24270.64177345  .00000113  00000+0  00000+0 0  9999
2 43162   2.2571 339.8825 0001955 224.0902 233.5931  1.00272630 24544
AL YAH 3                
1 43174U 18012A   24271.38453139 -.00000172  00000+0  00000+0 0  9992
2 43174   0.0240 186.6279 0002007  28.2836 270.0593  1.00269300 24546
SES-14                  
1 43175U 18012B   24269.73437267 -.00000294  00000+0  00000+0 0  9998
2 43175   0.0135 355.3212 0001105 198.7229  27.8651  1.00270593   711
GOES 17                 
1 43226U 18022A   24271.15325588 -.00000107  00000+0  00000+0 0  9990
2 43226   0.0431   2.1542 0002644 219.9609  94.7929  1.00271703 24134
HISPASAT 30W-6          
1 43228U 18023A   24271.16802553 -.00000232  00000+0  00000+0 0  9995
2 43228   0.0492  23.1247 0002359 153.4977 220.3373  1.00270720 24207
SUPERBIRD-B3            
1 43271U 18033A   24270.84862038 -.00000108  00000+0  00000+0 0  9994
2 43271   0.0175 193.0223 0001220 345.8023 294.8238  1.00271052 23764
HYLAS 4                 
1 43272U 18033B   24269.88020824 -.00000249  00000+0  00000+0 0  9992
2 43272   0.0678 268.3935 0001428 315.2471  64.9391  1.00272286 23752
IRNSS-1I                
1 43286U 18035A   24270.06369083  .00000084  00000+0  00000+0 0  9990
2 43286  29.3438  84.0315 0020482 178.8930 180.4759  1.00276306 23764
USA 283                 
1 43339U 18036A   24268.52945241 -.00000331  00000+0  00000+0 0  9990
2 43339   0.0128 184.1181 0000005 226.5843 277.8405  1.00269236  1085
COSMOS 2526             
1 43432U 18037A   24270.71021580 -.00000361  00000+0  00000+0 0  9993
2 43432   0.0258 122.1218 0000146 220.4577  47.1732  1.00272246 23663
APSTAR-6C               
1 43450U 18041A   24271.48670271 -.00000333  00000+0  00000+0 0  9999
2 43450   0.0341 335.6112 0003481 291.5507  48.8293  1.00271303 23547
BANGABANDHUSAT-1        
1 43463U 18044A   24270.76842979 -.00000379  00000+0  00000+0 0  9992
2 43463   0.0166 159.1902 0002549  48.8312 193.7589  1.00269717 23402
SES-12                  
1 43488U 18049A   24270.37271661 -.00000286  00000+0  00000+0 0  9992
2 43488   0.0321  43.5996 0002225 203.7377 347.5090  1.00272189 23105
FENGYUN 2H              
1 43491U 18050A   24270.68921014 -.00000146  00000+0  00000+0 0  9991
2 43491   1.4030  86.3209 0001666 124.9165 122.2591  1.00269964 23134
BEIDOU-2 IGSO-7         
1 43539U 18057A   24271.47760812 -.00000167  00000+0  00000+0 0  9999
2 43539  55.1473 168.4983 0078198 233.3811 249.8959  1.00280858 22837
TELSTAR 19V             
1 43562U 18059A   24271.09000698 -.00000296  00000+0  00000+0 0  9997
2 43562   0.0330 247.7414 0002748 282.3614 165.6716  1.00270358 22860
TELKOM 4 (MERAH PUTIH)  
1 43587U 18064A   24270.75674524 -.00000360  00000+0  00000+0 0  9999
2 43587   0.0220 151.3703 0002009  72.5846 162.5100  1.00266390 22574
TELSTAR 18V             
1 43611U 18069A   24271.34447955 -.00000310  00000+0  00000+0 0  9999
2 43611   0.0243 165.6824 0001973  26.1457  76.8080  1.00267843 22311
